{
  "type": "FeatureCollection",
  "features": [
    {
      "type": "Feature",
      "properties": {
        "norad_id": 27954,
        "name": "GALAXY 13 (HORIZONS-1)",
        "group": "intelsat",
        "lat": -0.9663790382898922,
        "lon": 2.9028435662426584,
        "alt_km": 35786.507394593995,
        "timestamp": "2025-12-25T03:55:55.974685+00:00",
        "meta_object_name": "GALAXY 13 (HORIZONS-1)",
        "meta_object_id": "2003-044A",
        "meta_epoch": "2025-12-24T17:31:23.154240",
        "meta_mean_motion": 1.00271701,
        "meta_eccentricity": 0.0002323,
        "meta_inclination": 0.9678,
        "meta_ra_of_asc_node": 86.3132,
        "meta_arg_of_pericenter": 184.6216,
        "meta_mean_anomaly": 295.3815,
        "meta_ephemeris_type": 0,
        "meta_classification_type": "U",
        "meta_norad_cat_id": 27954,
        "meta_element_set_no": 999,
        "meta_rev_at_epoch": 4482,
        "meta_bstar": 0,
        "meta_mean_motion_dot": 1.53e-06,
        "meta_mean_motion_ddot": 0,
        "tle_line1": "1 27954U 03044A   25358.73012910  .00000153  00000+0  00000+0 0  9991",
        "tle_line2": "2 27954   0.9678  86.3132 0002323 184.6216 295.3815  1.00271701 44820"
      },
      "geometry": {
        "type": "Point",
        "coordinates": [
          2.9028435662426584,
          -0.9663790382898922
        ]
      }
    },
    {
      "type": "Feature",
      "properties": {
        "norad_id": 28358,
        "name": "INTELSAT 10-02",
        "group": "intelsat",
        "lat": 0.03053644257194582,
        "lon": 151.938304501434,
        "alt_km": 35790.199424810795,
        "timestamp": "2025-12-25T03:55:55.974700+00:00",
        "meta_object_name": "INTELSAT 10-02",
        "meta_object_id": "2004-022A",
        "meta_epoch": "2025-12-24T13:05:33.607968",
        "meta_mean_motion": 1.00270014,
        "meta_eccentricity": 0.0001084,
        "meta_inclination": 0.0162,
        "meta_ra_of_asc_node": 45.3926,
        "meta_arg_of_pericenter": 249.4059,
        "meta_mean_anomaly": 353.955,
        "meta_ephemeris_type": 0,
        "meta_classification_type": "U",
        "meta_norad_cat_id": 28358,
        "meta_element_set_no": 999,
        "meta_rev_at_epoch": 7880,
        "meta_bstar": 0,
        "meta_mean_motion_dot": 1e-07,
        "meta_mean_motion_ddot": 0,
        "tle_line1": "1 28358U 04022A   25358.54552787  .00000010  00000+0  00000+0 0  9999",
        "tle_line2": "2 28358   0.0162  45.3926 0001084 249.4059 353.9550  1.00270014 78800"
      },
      "geometry": {
        "type": "Point",
        "coordinates": [
          151.938304501434,
          0.03053644257194582
        ]
      }
    },
    {
      "type": "Feature",
      "properties": {
        "norad_id": 28626,
        "name": "XM-3 (RHYTHM)",
        "group": "intelsat",
        "lat": 0.15974228193725704,
        "lon": -151.87984518872338,
        "alt_km": 36168.4406465765,
        "timestamp": "2025-12-25T03:55:55.974713+00:00",
        "meta_object_name": "XM-3 (RHYTHM)",
        "meta_object_id": "2005-008A",
        "meta_epoch": "2025-12-24T18:30:25.000416",
        "meta_mean_motion": 0.98950093,
        "meta_eccentricity": 0.000216,
        "meta_inclination": 0.2038,
        "meta_ra_of_asc_node": 82.2019,
        "meta_arg_of_pericenter": 274.1318,
        "meta_mean_anomaly": 71.9082,
        "meta_ephemeris_type": 0,
        "meta_classification_type": "U",
        "meta_norad_cat_id": 28626,
        "meta_element_set_no": 999,
        "meta_rev_at_epoch": 4086,
        "meta_bstar": 0,
        "meta_mean_motion_dot": 9.7e-07,
        "meta_mean_motion_ddot": 0,
        "tle_line1": "1 28626U 05008A   25358.77112269  .00000097  00000+0  00000+0 0  9999",
        "tle_line2": "2 28626   0.2038  82.2019 0002160 274.1318  71.9082  0.98950093 40864"
      },
      "geometry": {
        "type": "Point",
        "coordinates": [
          -151.87984518872338,
          0.15974228193725704
        ]
      }
    },
    {
      "type": "Feature",
      "properties": {
        "norad_id": 28659,
        "name": "DIRECTV 8",
        "group": "intelsat",
        "lat": 0.0071010134605166975,
        "lon": 33.8961673512885,
        "alt_km": 35790.61497888351,
        "timestamp": "2025-12-25T03:55:55.974725+00:00",
        "meta_object_name": "DIRECTV 8",
        "meta_object_id": "2005-019A",
        "meta_epoch": "2025-12-24T17:39:59.827968",
        "meta_mean_motion": 1.00271677,
        "meta_eccentricity": 0.0003026,
        "meta_inclination": 0.0184,
        "meta_ra_of_asc_node": 29.67,
        "meta_arg_of_pericenter": 253.5976,
        "meta_mean_anomaly": 316.1971,
        "meta_ephemeris_type": 0,
        "meta_classification_type": "U",
        "meta_norad_cat_id": 28659,
        "meta_element_set_no": 999,
        "meta_rev_at_epoch": 7532,
        "meta_bstar": 0,
        "meta_mean_motion_dot": 2.2e-07,
        "meta_mean_motion_ddot": 0,
        "tle_line1": "1 28659U 05019A   25358.73610912  .00000022  00000+0  00000+0 0  9999",
        "tle_line2": "2 28659   0.0184  29.6700 0003026 253.5976 316.1971  1.00271677 75323"
      },
      "geometry": {
        "type": "Point",
        "coordinates": [
          33.8961673512885,
          0.0071010134605166975
        ]
      }
    },
    {
      "type": "Feature",
      "properties": {
        "norad_id": 28702,
        "name": "GALAXY 28 (G-28)",
        "group": "intelsat",
        "lat": -0.5184931251787788,
        "lon": 70.3394287478135,
        "alt_km": 35709.16246417825,
        "timestamp": "2025-12-25T03:55:55.974737+00:00",
        "meta_object_name": "GALAXY 28 (G-28)",
        "meta_object_id": "2005-022A",
        "meta_epoch": "2025-12-24T14:24:56.007072",
        "meta_mean_motion": 1.00600166,
        "meta_eccentricity": 0.000356,
        "meta_inclination": 2.8501,
        "meta_ra_of_asc_node": 81.1437,
        "meta_arg_of_pericenter": 159.0288,
        "meta_mean_anomaly": 346.1954,
        "meta_ephemeris_type": 0,
        "meta_classification_type": "U",
        "meta_norad_cat_id": 28702,
        "meta_element_set_no": 999,
        "meta_rev_at_epoch": 5022,
        "meta_bstar": 0,
        "meta_mean_motion_dot": -2.26e-06,
        "meta_mean_motion_ddot": 0,
        "tle_line1": "1 28702U 05022A   25358.60064823 -.00000226  00000+0  00000+0 0  9999",
        "tle_line2": "2 28702   2.8501  81.1437 0003560 159.0288 346.1954  1.00600166 50229"
      },
      "geometry": {
        "type": "Point",
        "coordinates": [
          70.3394287478135,
          -0.5184931251787788
        ]
      }
    },
    {
      "type": "Feature",
      "properties": {
        "norad_id": 29236,
        "name": "GALAXY 16 (G-16)",
        "group": "intelsat",
        "lat": 0.006894470384892483,
        "lon": 53.91313452993891,
        "alt_km": 35794.33207976029,
        "timestamp": "2025-12-25T03:55:55.974749+00:00",
        "meta_object_name": "GALAXY 16 (G-16)",
        "meta_object_id": "2006-023A",
        "meta_epoch": "2025-12-24T14:20:26.438208",
        "meta_mean_motion": 1.00271417,
        "meta_eccentricity": 0.0002563,
        "meta_inclination": 0.0337,
        "meta_ra_of_asc_node": 185.6939,
        "meta_arg_of_pericenter": 89.6659,
        "meta_mean_anomaly": 294.1098,
        "meta_ephemeris_type": 0,
        "meta_classification_type": "U",
        "meta_norad_cat_id": 29236,
        "meta_element_set_no": 999,
        "meta_rev_at_epoch": 7122,
        "meta_bstar": 0,
        "meta_mean_motion_dot": -1.06e-06,
        "meta_mean_motion_ddot": 0,
        "tle_line1": "1 29236U 06023A   25358.59752822 -.00000106  00000+0  00000+0 0  9992",
        "tle_line2": "2 29236   0.0337 185.6939 0002563  89.6659 294.1098  1.00271417 71225"
      },
      "geometry": {
        "type": "Point",
        "coordinates": [
          53.91313452993891,
          0.006894470384892483
        ]
      }
    },
    {
      "type": "Feature",
      "properties": {
        "norad_id": 29494,
        "name": "DIRECTV 9S",
        "group": "intelsat",
        "lat": -1.0129961681486337,
        "lon": 51.74265430787518,
        "alt_km": 35794.84382608892,
        "timestamp": "2025-12-25T03:55:55.974761+00:00",
        "meta_object_name": "DIRECTV 9S",
        "meta_object_id": "2006-043A",
        "meta_epoch": "2025-12-24T14:19:48.996768",
        "meta_mean_motion": 1.00271842,
        "meta_eccentricity": 0.000298,
        "meta_inclination": 1.9689,
        "meta_ra_of_asc_node": 83.0865,
        "meta_arg_of_pericenter": 195.4722,
        "meta_mean_anomaly": 288.5613,
        "meta_ephemeris_type": 0,
        "meta_classification_type": "U",
        "meta_norad_cat_id": 29494,
        "meta_element_set_no": 999,
        "meta_rev_at_epoch": 4963,
        "meta_bstar": 0,
        "meta_mean_motion_dot": -9.3e-07,
        "meta_mean_motion_ddot": 0,
        "tle_line1": "1 29494U 06043A   25358.59709487 -.00000093  00000+0  00000+0 0  9994",
        "tle_line2": "2 29494   1.9689  83.0865 0002980 195.4722 288.5613  1.00271842 49632"
      },
      "geometry": {
        "type": "Point",
        "coordinates": [
          51.74265430787518,
          -1.0129961681486337
        ]
      }
    }
  ]
}